OBJECT_NAME,OBJECT_ID,EPOCH,MEAN_MOTION,ECCENTRICITY,INCLINATION,RA_OF_ASC_NODE,ARG_OF_PERICENTER,MEAN_ANOMALY,EPHEMERIS_TYPE,CLASSIFICATION_TYPE,NORAD_CAT_ID,ELEMENT_SET_NO,REV_AT_EPOCH,BSTAR,MEAN_MOTION_DOT,MEAN_MOTION_DDOT
HAWK-5A,2022-057AB,2026-07-02T09:24:57.030336,15.51934619,.00044551,97.6622,343.2282,26.1835,333.9641,0,U,52757,999,22870,.34189843E-3,.20448E-3,0
HAWK-6B,2023-011A,2026-07-02T09:30:24.050880,15.23064468,.00021097,40.4981,263.3579,164.9460,195.1413,0,U,55324,999,19016,.21214888E-3,.4911E-4,0
HAWK-6C,2023-011C,2026-07-02T09:29:30.164064,15.23062255,.00024548,40.4966,260.1979,143.8727,216.2248,0,U,55326,999,19017,.21630625E-3,.5011E-4,0
HAWK-6A,2023-011D,2026-07-02T09:29:33.258048,15.23063267,.00020235,40.4977,261.8235,142.5805,217.5146,0,U,55327,999,19017,.21753035E-3,.5041E-4,0
HAWK-7A,2023-054P,2026-07-02T10:33:41.793120,15.27520400,.0002937,97.2681,70.3898,20.8380,339.2978,0,U,56191,999,17935,.25878442E-3,.6896E-4,0
HAWK-7B,2023-054R,2026-07-02T15:16:35.731488,15.27520585,.00026745,97.2708,68.8505,40.2087,319.9350,0,U,56193,999,17938,.24357107E-3,.6486E-4,0
HAWK-7C,2023-054Y,2026-07-02T10:33:26.089056,15.27518092,.00024165,97.2684,69.4228,29.6141,330.5235,0,U,56200,999,17935,.254955E-3,.6792E-4,0
