HAWK-5A                 
1 52757U 22057AB  26183.39232674  .00020448  00000+0  34190-3 0  9995
2 52757  97.6622 343.2282 0004455  26.1835 333.9641 15.51934619228709
HAWK-6B                 
1 55324U 23011A   26183.39611170  .00004911  00000+0  21215-3 0  9992
2 55324  40.4981 263.3579 0002109 164.9460 195.1413 15.23064468190164
HAWK-6C                 
1 55326U 23011C   26183.39548801  .00005011  00000+0  21631-3 0  9998
2 55326  40.4966 260.1979 0002454 143.8727 216.2248 15.23062255190177
HAWK-6A                 
1 55327U 23011D   26183.39552382  .00005041  00000+0  21753-3 0  9996
2 55327  40.4977 261.8235 0002023 142.5805 217.5146 15.23063267190173
HAWK-7A                 
1 56191U 23054P   26183.44006705  .00006896  00000+0  25878-3 0  9993
2 56191  97.2681  70.3898 0002937  20.8380 339.2978 15.27520400179356
HAWK-7B                 
1 56193U 23054R   26183.63652467  .00006486  00000+0  24357-3 0  9994
2 56193  97.2708  68.8505 0002674  40.2087 319.9350 15.27520585179389
HAWK-7C                 
1 56200U 23054Y   26183.43988529  .00006792  00000+0  25496-3 0  9997
2 56200  97.2684  69.4228 0002416  29.6141 330.5235 15.27518092179354
